GLOBALSTAR M024         
1 25883U 99043A   25351.35894302 -.00000115  00000+0 -17916-2 0  9995
2 25883  52.0047 327.3220 0001760  32.0097 117.4333 11.10166246135201
GLOBALSTAR M027         
1 25884U 99043B   25351.33103264 -.00000022  00000+0  15592-2 0  9998
2 25884  52.0236  50.5547 0020973 286.1911  73.6575 11.04372329161476
GLOBALSTAR M054         
1 25885U 99043C   25350.72924294 -.00000059  00000+0  31892-3 0  9997
2 25885  52.0106 148.5597 0005937 124.7014 343.8308 11.39224898139858
GLOBALSTAR M053         
1 25886U 99043D   25351.28269390 -.00000091  00000+0 -66125-3 0  9993
2 25886  51.9976 104.4868 0003615  51.4723 320.7985 11.27668922140100
GLOBALSTAR M058         
1 25907U 99049A   25351.26314045 -.00000098  00000+0 -18359-3 0  9992
2 25907  51.9969 340.3106 0001720 269.2181  90.8456 11.93206507563392
GLOBALSTAR M050         
1 25908U 99049B   25351.34530263 -.00000105  00000+0 -19300-3 0  9990
2 25908  52.0012 334.0829 0009372  36.7943 111.2056 12.07461776170317
GLOBALSTAR M033         
1 25909U 99049C   25351.25346567 -.00000075  00000+0  15929-3 0  9991
2 25909  51.9878 193.5237 0013106 283.0634  76.8750 12.20294738558090
GLOBALSTAR M055         
1 25910U 99049D   25351.26356171 -.00000048  00000+0  39556-3 0  9998
2 25910  51.9987 195.3272 0007525 142.9587 217.1786 12.29438160190808
